[{"OBJECT_NAME":"STARLINK-35571","OBJECT_ID":"2025-236D","EPOCH":"2025-12-22T16:00:57.673152","MEAN_MOTION":15.30203081,"ECCENTRICITY":0.00011331,"INCLINATION":53.1599,"RA_OF_ASC_NODE":101.5329,"ARG_OF_PERICENTER":72.6872,"MEAN_ANOMALY":287.4253,"EPHEMERIS_TYPE":0,"CLASSIFICATION_TYPE":"U","NORAD_CAT_ID":66089,"ELEMENT_SET_NO":999,"REV_AT_EPOCH":1115,"BSTAR":0.00081558479,"MEAN_MOTION_DOT":0.00023876,"MEAN_MOTION_DDOT":0},{"OBJECT_NAME":"STARLINK-35570","OBJECT_ID":"2025-236E","EPOCH":"2025-12-22T17:12:13.152960","MEAN_MOTION":15.30184377,"ECCENTRICITY":0.00011343,"INCLINATION":53.1585,"RA_OF_ASC_NODE":101.13,"ARG_OF_PERICENTER":60.8818,"MEAN_ANOMALY":299.2296,"EPHEMERIS_TYPE":0,"CLASSIFICATION_TYPE":"U","NORAD_CAT_ID":66090,"ELEMENT_SET_NO":999,"REV_AT_EPOCH":1116,"BSTAR":0.0010470656,"MEAN_MOTION_DOT":0.00030765,"MEAN_MOTION_DDOT":0},{"OBJECT_NAME":"STARLINK-35532","OBJECT_ID":"2025-236F","EPOCH":"2025-12-22T13:54:59.570496","MEAN_MOTION":15.30186805,"ECCENTRICITY":0.00012182,"INCLINATION":53.1594,"RA_OF_ASC_NODE":101.6952,"ARG_OF_PERICENTER":92.9303,"MEAN_ANOMALY":267.1838,"EPHEMERIS_TYPE":0,"CLASSIFICATION_TYPE":"U","NORAD_CAT_ID":66091,"ELEMENT_SET_NO":999,"REV_AT_EPOCH":1114,"BSTAR":0.00021357283,"MEAN_MOTION_DOT":5.969e-5,"MEAN_MOTION_DDOT":0},{"OBJECT_NAME":"STARLINK-35527","OBJECT_ID":"2025-236G","EPOCH":"2025-12-23T00:42:54.055584","MEAN_MOTION":15.30193188,"ECCENTRICITY":0.00013208,"INCLINATION":53.1613,"RA_OF_ASC_NODE":100.2408,"ARG_OF_PERICENTER":62.2154,"MEAN_ANOMALY":297.898,"EPHEMERIS_TYPE":0,"CLASSIFICATION_TYPE":"U","NORAD_CAT_ID":66092,"ELEMENT_SET_NO":999,"REV_AT_EPOCH":1120,"BSTAR":0.00097993887,"MEAN_MOTION_DOT":0.0002877,"MEAN_MOTION_DDOT":0},{"OBJECT_NAME":"STARLINK-35500","OBJECT_ID":"2025-236H","EPOCH":"2025-12-22T11:23:21.287616","MEAN_MOTION":15.30223041,"ECCENTRICITY":0.00011328,"INCLINATION":53.1588,"RA_OF_ASC_NODE":102.4632,"ARG_OF_PERICENTER":88.1106,"MEAN_ANOMALY":272.0025,"EPHEMERIS_TYPE":0,"CLASSIFICATION_TYPE":"U","NORAD_CAT_ID":66093,"ELEMENT_SET_NO":999,"REV_AT_EPOCH":1112,"BSTAR":0.0012433095,"MEAN_MOTION_DOT":0.00036672,"MEAN_MOTION_DDOT":0},{"OBJECT_NAME":"STARLINK-35528","OBJECT_ID":"2025-236J","EPOCH":"2025-12-22T15:56:23.925984","MEAN_MOTION":15.30239125,"ECCENTRICITY":3.722e-5,"INCLINATION":53.1585,"RA_OF_ASC_NODE":101.5119,"ARG_OF_PERICENTER":57.1554,"MEAN_ANOMALY":302.9482,"EPHEMERIS_TYPE":0,"CLASSIFICATION_TYPE":"U","NORAD_CAT_ID":66094,"ELEMENT_SET_NO":999,"REV_AT_EPOCH":1115,"BSTAR":0.0014506857,"MEAN_MOTION_DOT":0.00042907,"MEAN_MOTION_DDOT":0},{"OBJECT_NAME":"STARLINK-35559","OBJECT_ID":"2025-236K","EPOCH":"2025-12-22T14:17:47.177088","MEAN_MOTION":15.30176644,"ECCENTRICITY":0.00013017,"INCLINATION":53.1595,"RA_OF_ASC_NODE":101.7964,"ARG_OF_PERICENTER":96.9071,"MEAN_ANOMALY":263.2078,"EPHEMERIS_TYPE":0,"CLASSIFICATION_TYPE":"U","NORAD_CAT_ID":66095,"ELEMENT_SET_NO":999,"REV_AT_EPOCH":1114,"BSTAR":0.00090233049,"MEAN_MOTION_DOT":0.00026441,"MEAN_MOTION_DDOT":0},{"OBJECT_NAME":"STARLINK-34386","OBJECT_ID":"2025-236L","EPOCH":"2025-12-23T07:23:15.635040","MEAN_MOTION":15.30206555,"ECCENTRICITY":0.00017572,"INCLINATION":53.1575,"RA_OF_ASC_NODE":98.4153,"ARG_OF_PERICENTER":95.2344,"MEAN_ANOMALY":264.8858,"EPHEMERIS_TYPE":0,"CLASSIFICATION_TYPE":"U","NORAD_CAT_ID":66096,"ELEMENT_SET_NO":999,"REV_AT_EPOCH":1125,"BSTAR":0.00086606718,"MEAN_MOTION_DOT":0.00025384,"MEAN_MOTION_DDOT":0},{"OBJECT_NAME":"STARLINK-35613","OBJECT_ID":"2025-236M","EPOCH":"2025-12-22T11:12:42.986880","MEAN_MOTION":15.30225921,"ECCENTRICITY":7.662e-5,"INCLINATION":53.1585,"RA_OF_ASC_NODE":102.4155,"ARG_OF_PERICENTER":89.7724,"MEAN_ANOMALY":270.3364,"EPHEMERIS_TYPE":0,"CLASSIFICATION_TYPE":"U","NORAD_CAT_ID":66097,"ELEMENT_SET_NO":999,"REV_AT_EPOCH":1112,"BSTAR":0.00091072782,"MEAN_MOTION_DOT":0.00026733,"MEAN_MOTION_DDOT":0},{"OBJECT_NAME":"STARLINK-34206","OBJECT_ID":"2025-236N","EPOCH":"2025-12-22T13:42:59.945760","MEAN_MOTION":15.3018371,"ECCENTRICITY":0.00011066,"INCLINATION":53.1614,"RA_OF_ASC_NODE":102.3572,"ARG_OF_PERICENTER":97.7251,"MEAN_ANOMALY":262.3875,"EPHEMERIS_TYPE":0,"CLASSIFICATION_TYPE":"U","NORAD_CAT_ID":66098,"ELEMENT_SET_NO":999,"REV_AT_EPOCH":1112,"BSTAR":0.00092010087,"MEAN_MOTION_DOT":0.00026977,"MEAN_MOTION_DDOT":0},{"OBJECT_NAME":"STARLINK-34460","OBJECT_ID":"2025-236P","EPOCH":"2025-12-22T17:07:39.633024","MEAN_MOTION":15.30190003,"ECCENTRICITY":0.00010104,"INCLINATION":53.1596,"RA_OF_ASC_NODE":101.1077,"ARG_OF_PERICENTER":75.0211,"MEAN_ANOMALY":285.0902,"EPHEMERIS_TYPE":0,"CLASSIFICATION_TYPE":"U","NORAD_CAT_ID":66099,"ELEMENT_SET_NO":999,"REV_AT_EPOCH":1116,"BSTAR":0.00099778218,"MEAN_MOTION_DOT":0.000293,"MEAN_MOTION_DDOT":0},{"OBJECT_NAME":"STARLINK-35609","OBJECT_ID":"2025-236Q","EPOCH":"2025-12-23T00:36:49.385376","MEAN_MOTION":15.30191622,"ECCENTRICITY":0.000212,"INCLINATION":53.1602,"RA_OF_ASC_NODE":100.2084,"ARG_OF_PERICENTER":86.9795,"MEAN_ANOMALY":273.1449,"EPHEMERIS_TYPE":0,"CLASSIFICATION_TYPE":"U","NORAD_CAT_ID":66100,"ELEMENT_SET_NO":999,"REV_AT_EPOCH":1114,"BSTAR":0.00074584592,"MEAN_MOTION_DOT":0.0002179,"MEAN_MOTION_DDOT":0},{"OBJECT_NAME":"STARLINK-35595","OBJECT_ID":"2025-236R","EPOCH":"2025-12-22T16:41:59.952192","MEAN_MOTION":15.30257753,"ECCENTRICITY":0.00010095,"INCLINATION":53.1614,"RA_OF_ASC_NODE":101.7078,"ARG_OF_PERICENTER":44.0999,"MEAN_ANOMALY":316.0082,"EPHEMERIS_TYPE":0,"CLASSIFICATION_TYPE":"U","NORAD_CAT_ID":66101,"ELEMENT_SET_NO":999,"REV_AT_EPOCH":1109,"BSTAR":0.0015968002,"MEAN_MOTION_DOT":0.0004732,"MEAN_MOTION_DDOT":0},{"OBJECT_NAME":"STARLINK-35599","OBJECT_ID":"2025-236S","EPOCH":"2025-12-22T13:29:19.306464","MEAN_MOTION":15.30205293,"ECCENTRICITY":8.001e-5,"INCLINATION":53.1624,"RA_OF_ASC_NODE":102.2934,"ARG_OF_PERICENTER":93.6325,"MEAN_ANOMALY":266.4768,"EPHEMERIS_TYPE":0,"CLASSIFICATION_TYPE":"U","NORAD_CAT_ID":66102,"ELEMENT_SET_NO":999,"REV_AT_EPOCH":1107,"BSTAR":0.00098366979,"MEAN_MOTION_DOT":0.00028892,"MEAN_MOTION_DDOT":0},{"OBJECT_NAME":"STARLINK-35622","OBJECT_ID":"2025-236T","EPOCH":"2025-12-22T16:28:18.621696","MEAN_MOTION":15.30190099,"ECCENTRICITY":9.695e-5,"INCLINATION":53.1634,"RA_OF_ASC_NODE":101.6445,"ARG_OF_PERICENTER":120.1865,"MEAN_ANOMALY":239.9232,"EPHEMERIS_TYPE":0,"CLASSIFICATION_TYPE":"U","NORAD_CAT_ID":66103,"ELEMENT_SET_NO":999,"REV_AT_EPOCH":1115,"BSTAR":0.00085866078,"MEAN_MOTION_DOT":0.0002515,"MEAN_MOTION_DDOT":0},{"OBJECT_NAME":"STARLINK-35452","OBJECT_ID":"2025-236U","EPOCH":"2025-12-23T06:39:21.280896","MEAN_MOTION":15.30222287,"ECCENTRICITY":0.00015317,"INCLINATION":53.1624,"RA_OF_ASC_NODE":98.9366,"ARG_OF_PERICENTER":120.7585,"MEAN_ANOMALY":239.3567,"EPHEMERIS_TYPE":0,"CLASSIFICATION_TYPE":"U","NORAD_CAT_ID":66104,"ELEMENT_SET_NO":999,"REV_AT_EPOCH":1124,"BSTAR":0.00099559796,"MEAN_MOTION_DOT":0.00029264,"MEAN_MOTION_DDOT":0}]
