STARLINK-35571          
1 66089U 25236D   25356.66733418  .00023876  00000+0  81558-3 0  9991
2 66089  53.1599 101.5329 0001133  72.6872 287.4253 15.30203081 11156
STARLINK-35570          
1 66090U 25236E   25356.71681890  .00030765  00000+0  10471-2 0  9995
2 66090  53.1585 101.1300 0001134  60.8818 299.2296 15.30184377 11163
STARLINK-35532          
1 66091U 25236F   25356.57985614  .00005969  00000+0  21357-3 0  9995
2 66091  53.1594 101.6952 0001218  92.9303 267.1838 15.30186805 11142
STARLINK-35527          
1 66092U 25236G   25357.02979231  .00028770  00000+0  97994-3 0  9990
2 66092  53.1613 100.2408 0001320  62.2154 297.8980 15.30193188 11201
STARLINK-35500          
1 66093U 25236H   25356.47455194  .00036672  00000+0  12433-2 0  9990
2 66093  53.1588 102.4632 0001132  88.1106 272.0025 15.30223041 11129
STARLINK-35528          
1 66094U 25236J   25356.66416581  .00042907  00000+0  14507-2 0  9991
2 66094  53.1585 101.5119 0000372  57.1554 302.9482 15.30239125 11158
STARLINK-35559          
1 66095U 25236K   25356.59568492  .00026441  00000+0  90233-3 0  9999
2 66095  53.1595 101.7964 0001301  96.9071 263.2078 15.30176644 11143
STARLINK-34386          
1 66096U 25236L   25357.30781985  .00025384  00000+0  86607-3 0  9999
2 66096  53.1575  98.4153 0001757  95.2344 264.8858 15.30206555 11254
STARLINK-35613          
1 66097U 25236M   25356.46716420  .00026733  00000+0  91073-3 0  9990
2 66097  53.1585 102.4155 0000766  89.7724 270.3364 15.30225921 11121
STARLINK-34206          
1 66098U 25236N   25356.57152715  .00026977  00000+0  92010-3 0  9996
2 66098  53.1614 102.3572 0001106  97.7251 262.3875 15.30183710 11127
STARLINK-34460          
1 66099U 25236P   25356.71365316  .00029300  00000+0  99778-3 0  9997
2 66099  53.1596 101.1077 0001010  75.0211 285.0902 15.30190003 11163
STARLINK-35609          
1 66100U 25236Q   25357.02557159  .00021790  00000+0  74585-3 0  9997
2 66100  53.1602 100.2084 0002120  86.9795 273.1449 15.30191622 11143
STARLINK-35595          
1 66101U 25236R   25356.69583278  .00047320  00000+0  15968-2 0  9997
2 66101  53.1614 101.7078 0001009  44.0999 316.0082 15.30257753 11094
STARLINK-35599          
1 66102U 25236S   25356.56202901  .00028892  00000+0  98367-3 0  9993
2 66102  53.1624 102.2934 0000800  93.6325 266.4768 15.30205293 11073
STARLINK-35622          
1 66103U 25236T   25356.68632664  .00025150  00000+0  85866-3 0  9994
2 66103  53.1634 101.6445 0000969 120.1865 239.9232 15.30190099 11153
STARLINK-35452          
1 66104U 25236U   25357.27732964  .00029264  00000+0  99560-3 0  9991
2 66104  53.1624  98.9366 0001531 120.7585 239.3567 15.30222287 11244
